{"type":"FeatureCollection","features":[{"type":"Feature","geometry":{"type":"Polygon","coordinates":[[[147.0,-9.5],[147.25,-9.5],[147.25,-9.25],[147.0,-9.25],[147.0,-9.5]]]},"properties":{"records":38,"taxa":11,"genera":7,"institutes":7,"center":[-9.375,147.125]}},{"type":"Feature","geometry":{"type":"Polygon","coordinates":[[[143.75,-6.5],[144.0,-6.5],[144.0,-6.25],[143.75,-6.25],[143.75,-6.5]]]},"properties":{"records":17,"taxa":2,"genera":2,"institutes":2,"center":[-6.375,143.875]}},{"type":"Feature","geometry":{"type":"Polygon","coordinates":[[[146.5,-6.75],[146.75,-6.75],[146.75,-6.5],[146.5,-6.5],[146.5,-6.75]]]},"properties":{"records":6,"taxa":3,"genera":2,"institutes":4,"center":[-6.625,146.625]}},{"type":"Feature","geometry":{"type":"Polygon","coordinates":[[[144.75,-4.5],[145.0,-4.5],[145.0,-4.25],[144.75,-4.25],[144.75,-4.5]]]},"properties":{"records":6,"taxa":2,"genera":2,"institutes":4,"center":[-4.375,144.875]}},{"type":"Feature","geometry":{"type":"Polygon","coordinates":[[[147.0,-9.75],[147.25,-9.75],[147.25,-9.5],[147.0,-9.5],[147.0,-9.75]]]},"properties":{"records":5,"taxa":3,"genera":3,"institutes":3,"center":[-9.625,147.125]}},{"type":"Feature","geometry":{"type":"Polygon","coordinates":[[[147.5,-9.75],[147.75,-9.75],[147.75,-9.5],[147.5,-9.5],[147.5,-9.75]]]},"properties":{"records":5,"taxa":3,"genera":2,"institutes":4,"center":[-9.625,147.625]}},{"type":"Feature","geometry":{"type":"Polygon","coordinates":[[[143.0,-9.25],[143.25,-9.25],[143.25,-9.0],[143.0,-9.0],[143.0,-9.25]]]},"properties":{"records":3,"taxa":2,"genera":2,"institutes":4,"center":[-9.125,143.125]}},{"type":"Feature","geometry":{"type":"Polygon","coordinates":[[[150.25,-10.5],[150.5,-10.5],[150.5,-10.25],[150.25,-10.25],[150.25,-10.5]]]},"properties":{"records":3,"taxa":2,"genera":1,"institutes":5,"center":[-10.375,150.375]}},{"type":"Feature","geometry":{"type":"Polygon","coordinates":[[[144.0,-6.0],[144.25,-6.0],[144.25,-5.75],[144.0,-5.75],[144.0,-6.0]]]},"properties":{"records":3,"taxa":1,"genera":1,"institutes":5,"center":[-5.875,144.125]}},{"type":"Feature","geometry":{"type":"Polygon","coordinates":[[[147.0,-6.5],[147.25,-6.5],[147.25,-6.25],[147.0,-6.25],[147.0,-6.5]]]},"properties":{"records":2,"taxa":1,"genera":1,"institutes":1,"center":[-6.375,147.125]}},{"type":"Feature","geometry":{"type":"Polygon","coordinates":[[[145.75,-6.0],[146.0,-6.0],[146.0,-5.75],[145.75,-5.75],[145.75,-6.0]]]},"properties":{"records":2,"taxa":1,"genera":1,"institutes":4,"center":[-5.875,145.875]}},{"type":"Feature","geometry":{"type":"Polygon","coordinates":[[[147.25,-9.75],[147.5,-9.75],[147.5,-9.5],[147.25,-9.5],[147.25,-9.75]]]},"properties":{"records":2,"taxa":2,"genera":2,"institutes":1,"center":[-9.625,147.375]}},{"type":"Feature","geometry":{"type":"Polygon","coordinates":[[[147.0,-6.0],[147.25,-6.0],[147.25,-5.75],[147.0,-5.75],[147.0,-6.0]]]},"properties":{"records":1,"taxa":1,"genera":1,"institutes":2,"center":[-5.875,147.125]}},{"type":"Feature","geometry":{"type":"Polygon","coordinates":[[[147.0,-8.5],[147.25,-8.5],[147.25,-8.25],[147.0,-8.25],[147.0,-8.5]]]},"properties":{"records":1,"taxa":1,"genera":1,"institutes":1,"center":[-8.375,147.125]}},{"type":"Feature","geometry":{"type":"Polygon","coordinates":[[[147.0,-6.75],[147.25,-6.75],[147.25,-6.5],[147.0,-6.5],[147.0,-6.75]]]},"properties":{"records":1,"taxa":1,"genera":1,"institutes":3,"center":[-6.625,147.125]}},{"type":"Feature","geometry":{"type":"Polygon","coordinates":[[[146.5,-7.25],[146.75,-7.25],[146.75,-7.0],[146.5,-7.0],[146.5,-7.25]]]},"properties":{"records":1,"taxa":1,"genera":1,"institutes":4,"center":[-7.125,146.625]}},{"type":"Feature","geometry":{"type":"Polygon","coordinates":[[[145.75,-6.5],[146.0,-6.5],[146.0,-6.25],[145.75,-6.25],[145.75,-6.5]]]},"properties":{"records":1,"taxa":1,"genera":1,"institutes":2,"center":[-6.375,145.875]}},{"type":"Feature","geometry":{"type":"Polygon","coordinates":[[[148.25,-8.75],[148.5,-8.75],[148.5,-8.5],[148.25,-8.5],[148.25,-8.75]]]},"properties":{"records":1,"taxa":1,"genera":1,"institutes":2,"center":[-8.625,148.375]}},{"type":"Feature","geometry":{"type":"Polygon","coordinates":[[[148.0,-9.0],[148.25,-9.0],[148.25,-8.75],[148.0,-8.75],[148.0,-9.0]]]},"properties":{"records":1,"taxa":1,"genera":1,"institutes":2,"center":[-8.875,148.125]}},{"type":"Feature","geometry":{"type":"Polygon","coordinates":[[[144.75,-6.25],[145.0,-6.25],[145.0,-6.0],[144.75,-6.0],[144.75,-6.25]]]},"properties":{"records":1,"taxa":1,"genera":1,"institutes":1,"center":[-6.125,144.875]}}]}